{
  "type": "FeatureCollection",
  "features": [
    {
      "type": "Feature",
      "properties": {
        "norad_id": 66650,
        "name": "2025-274A",
        "group": "last-30-days",
        "lat": 18.14322071214901,
        "lon": 86.38317871151058,
        "alt_km": 598.0036679706509,
        "timestamp": "2025-12-02T10:50:46.053981+00:00",
        "meta_object_name": "2025-274A",
        "meta_object_id": "2025-274A",
        "meta_epoch": "2025-12-02T00:27:47.322144",
        "meta_mean_motion": 14.91599451,
        "meta_eccentricity": 0.0010478,
        "meta_inclination": 97.7378,
        "meta_ra_of_asc_node": 263.405,
        "meta_arg_of_pericenter": 292.6464,
        "meta_mean_anomaly": 67.3646,
        "meta_ephemeris_type": 0,
        "meta_classification_type": "U",
        "meta_norad_cat_id": 66650,
        "meta_element_set_no": 999,
        "meta_rev_at_epoch": 80,
        "meta_bstar": 0.00026444,
        "meta_mean_motion_dot": 2.6e-05,
        "meta_mean_motion_ddot": 0,
        "tle_line1": "1 66650U 25274A   25336.01929771  .00002600  00000+0  26444-3 0  9998",
        "tle_line2": "2 66650  97.7378 263.4050 0010478 292.6464  67.3646 14.91599451   807"
      },
      "geometry": {
        "type": "Point",
        "coordinates": [
          86.38317871151058,
          18.14322071214901
        ]
      }
    },
    {
      "type": "Feature",
      "properties": {
        "norad_id": 66651,
        "name": "2025-274B",
        "group": "last-30-days",
        "lat": 16.988677356973714,
        "lon": 86.21016802909911,
        "alt_km": 597.9770824818261,
        "timestamp": "2025-12-02T10:50:46.053996+00:00",
        "meta_object_name": "2025-274B",
        "meta_object_id": "2025-274B",
        "meta_epoch": "2025-12-01T18:01:06.913344",
        "meta_mean_motion": 14.91660542,
        "meta_eccentricity": 0.0010821,
        "meta_inclination": 97.7371,
        "meta_ra_of_asc_node": 263.1416,
        "meta_arg_of_pericenter": 293.1712,
        "meta_mean_anomaly": 66.8366,
        "meta_ephemeris_type": 0,
        "meta_classification_type": "U",
        "meta_norad_cat_id": 66651,
        "meta_element_set_no": 999,
        "meta_rev_at_epoch": 76,
        "meta_bstar": 0.00042597,
        "meta_mean_motion_dot": 4.231e-05,
        "meta_mean_motion_ddot": 0,
        "tle_line1": "1 66651U 25274B   25335.75077446  .00004231  00000+0  42597-3 0  9991",
        "tle_line2": "2 66651  97.7371 263.1416 0010821 293.1712  66.8366 14.91660542   766"
      },
      "geometry": {
        "type": "Point",
        "coordinates": [
          86.21016802909911,
          16.988677356973714
        ]
      }
    },
    {
      "type": "Feature",
      "properties": {
        "norad_id": 66652,
        "name": "2025-274C",
        "group": "last-30-days",
        "lat": 13.873706455017114,
        "lon": 85.7558536434786,
        "alt_km": 598.2222693479926,
        "timestamp": "2025-12-02T10:50:46.054007+00:00",
        "meta_object_name": "2025-274C",
        "meta_object_id": "2025-274C",
        "meta_epoch": "2025-12-02T02:03:18.597024",
        "meta_mean_motion": 14.91812766,
        "meta_eccentricity": 0.0010567,
        "meta_inclination": 97.7378,
        "meta_ra_of_asc_node": 263.4718,
        "meta_arg_of_pericenter": 298.6241,
        "meta_mean_anomaly": 61.3915,
        "meta_ephemeris_type": 0,
        "meta_classification_type": "U",
        "meta_norad_cat_id": 66652,
        "meta_element_set_no": 999,
        "meta_rev_at_epoch": 81,
        "meta_bstar": 0.00035521,
        "meta_mean_motion_dot": 3.532e-05,
        "meta_mean_motion_ddot": 0,
        "tle_line1": "1 66652U 25274C   25336.08563191  .00003532  00000+0  35521-3 0  9998",
        "tle_line2": "2 66652  97.7378 263.4718 0010567 298.6241  61.3915 14.91812766   819"
      },
      "geometry": {
        "type": "Point",
        "coordinates": [
          85.7558536434786,
          13.873706455017114
        ]
      }
    },
    {
      "type": "Feature",
      "properties": {
        "norad_id": 66653,
        "name": "2025-274D",
        "group": "last-30-days",
        "lat": 13.704581416737934,
        "lon": 85.73074943389928,
        "alt_km": 598.1203673970167,
        "timestamp": "2025-12-02T10:50:46.054016+00:00",
        "meta_object_name": "2025-274D",
        "meta_object_id": "2025-274D",
        "meta_epoch": "2025-12-02T02:03:15.458112",
        "meta_mean_motion": 14.91817003,
        "meta_eccentricity": 0.0011474,
        "meta_inclination": 97.7373,
        "meta_ra_of_asc_node": 263.4712,
        "meta_arg_of_pericenter": 293.8442,
        "meta_mean_anomaly": 66.1574,
        "meta_ephemeris_type": 0,
        "meta_classification_type": "U",
        "meta_norad_cat_id": 66653,
        "meta_element_set_no": 999,
        "meta_rev_at_epoch": 81,
        "meta_bstar": 0.0001608,
        "meta_mean_motion_dot": 1.568e-05,
        "meta_mean_motion_ddot": 0,
        "tle_line1": "1 66653U 25274D   25336.08559558  .00001568  00000+0  16080-3 0  9997",
        "tle_line2": "2 66653  97.7373 263.4712 0011474 293.8442  66.1574 14.91817003   810"
      },
      "geometry": {
        "type": "Point",
        "coordinates": [
          85.73074943389928,
          13.704581416737934
        ]
      }
    },
    {
      "type": "Feature",
      "properties": {
        "norad_id": 66654,
        "name": "JACK E",
        "group": "last-30-days",
        "lat": 10.411934608323056,
        "lon": 85.26458440846982,
        "alt_km": 598.1067948504533,
        "timestamp": "2025-12-02T10:50:46.054030+00:00",
        "meta_object_name": "JACK E",
        "meta_object_id": "2025-274E",
        "meta_epoch": "2025-12-02T02:02:25.385856",
        "meta_mean_motion": 14.91983333,
        "meta_eccentricity": 0.0011923,
        "meta_inclination": 97.7378,
        "meta_ra_of_asc_node": 263.4727,
        "meta_arg_of_pericenter": 295.7238,
        "meta_mean_anomaly": 64.275,
        "meta_ephemeris_type": 0,
        "meta_classification_type": "U",
        "meta_norad_cat_id": 66654,
        "meta_element_set_no": 999,
        "meta_rev_at_epoch": 81,
        "meta_bstar": 0.00040487,
        "meta_mean_motion_dot": 4.052e-05,
        "meta_mean_motion_ddot": 0,
        "tle_line1": "1 66654U 25274E   25336.08501604  .00004052  00000+0  40487-3 0  9996",
        "tle_line2": "2 66654  97.7378 263.4727 0011923 295.7238  64.2750 14.91983333   810"
      },
      "geometry": {
        "type": "Point",
        "coordinates": [
          85.26458440846982,
          10.411934608323056
        ]
      }
    },
    {
      "type": "Feature",
      "properties": {
        "norad_id": 66655,
        "name": "2025-274F",
        "group": "last-30-days",
        "lat": 7.765499107206882,
        "lon": 84.8961355183722,
        "alt_km": 597.8888490395047,
        "timestamp": "2025-12-02T10:50:46.054040+00:00",
        "meta_object_name": "2025-274F",
        "meta_object_id": "2025-274F",
        "meta_epoch": "2025-12-02T02:01:49.412352",
        "meta_mean_motion": 14.92208198,
        "meta_eccentricity": 0.0007966,
        "meta_inclination": 97.7352,
        "meta_ra_of_asc_node": 263.4734,
        "meta_arg_of_pericenter": 324.6108,
        "meta_mean_anomaly": 35.4582,
        "meta_ephemeris_type": 0,
        "meta_classification_type": "U",
        "meta_norad_cat_id": 66655,
        "meta_element_set_no": 999,
        "meta_rev_at_epoch": 81,
        "meta_bstar": 0.00040158,
        "meta_mean_motion_dot": 4.039e-05,
        "meta_mean_motion_ddot": 0,
        "tle_line1": "1 66655U 25274F   25336.08459968  .00004039  00000+0  40158-3 0  9992",
        "tle_line2": "2 66655  97.7352 263.4734 0007966 324.6108  35.4582 14.92208198   814"
      },
      "geometry": {
        "type": "Point",
        "coordinates": [
          84.8961355183722,
          7.765499107206882
        ]
      }
    },
    {
      "type": "Feature",
      "properties": {
        "norad_id": 66656,
        "name": "2025-274G",
        "group": "last-30-days",
        "lat": 6.751299016799572,
        "lon": 84.75656036624936,
        "alt_km": 598.1034551390503,
        "timestamp": "2025-12-02T10:50:46.054050+00:00",
        "meta_object_name": "2025-274G",
        "meta_object_id": "2025-274G",
        "meta_epoch": "2025-12-01T17:58:40.345248",
        "meta_mean_motion": 14.92160082,
        "meta_eccentricity": 0.0012613,
        "meta_inclination": 97.7374,
        "meta_ra_of_asc_node": 263.1441,
        "meta_arg_of_pericenter": 298.549,
        "meta_mean_anomaly": 61.4459,
        "meta_ephemeris_type": 0,
        "meta_classification_type": "U",
        "meta_norad_cat_id": 66656,
        "meta_element_set_no": 999,
        "meta_rev_at_epoch": 76,
        "meta_bstar": 0.00039914,
        "meta_mean_motion_dot": 4.012e-05,
        "meta_mean_motion_ddot": 0,
        "tle_line1": "1 66656U 25274G   25335.74907807  .00004012  00000+0  39914-3 0  9994",
        "tle_line2": "2 66656  97.7374 263.1441 0012613 298.5490  61.4459 14.92160082   764"
      },
      "geometry": {
        "type": "Point",
        "coordinates": [
          84.75656036624936,
          6.751299016799572
        ]
      }
    }
  ]
}